LANDSAT 8               
1 39084U 13008A   26115.90481305  .00000327  00000+0  82571-4 0  9999
2 39084  98.1852 186.8363 0001156  95.2329 264.9002 14.57105341690286
SARAL                   
1 39086U 13009A   26115.94698599  .00000111  00000+0  56628-4 0  9996
2 39086  98.5566 303.1739 0002991  84.0878 276.0647 14.32842751688123
GAOFEN-1                
1 39150U 13018A   26115.94988388  .00000351  00000+0  57549-4 0  9995
2 39150  97.9110 189.0733 0018482  75.6480 284.6781 14.76514000700530
VNREDSAT 1              
1 39160U 13021B   26115.90235455  .00000243  00000+0  53955-4 0  9993
2 39160  97.9123 171.3144 0001270  87.9797 272.1552 14.64949715692630
ARIRANG-5 (KOMPSAT-5)   
1 39227U 13042A   26115.89059047  .00000757  00000+0  58391-4 0  9998
2 39227  97.6214 303.3234 0002698 348.2693  11.8470 15.04499125695991
SKYSAT-A                
1 39418U 13066C   26115.60693707  .00003121  00000+0  18101-3 0  9994
2 39418  97.3867 166.6784 0022904 133.5960 226.7178 15.12661764680533
DUBAISAT-2              
1 39419U 13066D   26115.98419756  .00005292  00000+0  33105-3 0  9998
2 39419  97.4562 107.5167 0010322 205.3516 154.7208 15.09791671678518
GPM-CORE                
1 39574U 14009C   26115.97140730  .00007699  00000+0  16923-3 0  9992
2 39574  64.9709 123.1058 0012225 260.3961  99.5798 15.44651689689744
SENTINEL-1A             
1 39634U 14016A   26115.97895118 -.00000012  00000+0  70968-5 0  9998
2 39634  98.1805 124.2710 0001395  84.2208 275.9151 14.59199183642403
KAZEOSAT 1              
1 39731U 14024A   26115.91344331 -.00000058  00000+0 -47730-5 0  9997
2 39731  98.3216 189.6559 0001418  99.0304 261.1047 14.42057322631029
ALOS-2                  
1 39766U 14029A   26115.18266031  .00000370  00000+0  56479-4 0  9993
2 39766  97.9197 213.1044 0001828  85.9380 274.2041 14.79472741643742
KAZEOSAT 2              
1 40010U 14033A   26115.88994138 -.00000034  00000+0  18525-5 0  9994
2 40010  97.5457 318.2555 0009717 125.4263 234.7862 14.85404090641198
HODOYOSHI-4             
1 40011U 14033B   26115.92080509  .00001137  00000+0  12891-3 0  9990
2 40011  97.5464 303.2701 0024941 117.2267 243.1496 14.87995593641038
DEIMOS-2                
1 40013U 14033D   26115.92960726  .00001574  00000+0  15441-3 0  9999
2 40013  97.5896 352.2389 0002077 103.5096 256.6356 14.93573090629928
HODOYOSHI-3             
1 40015U 14033F   26115.90858296  .00001247  00000+0  14989-3 0  9990
2 40015  97.6373 281.0719 0033373 164.3812 195.8441 14.85268356639861
SPOT 7                  
1 40053U 14034A   26115.92359144  .00000204  00000+0  50980-4 0  9997
2 40053  98.0660 179.7543 0001564  79.5846 280.5531 14.60909989629505
SKYSAT-B                
1 40072U 14037D   26115.87422303  .00001442  00000+0  16426-3 0  9994
2 40072  98.3799  71.8768 0007029  88.0192 272.1827 14.87885069638184
