[{"OBJECT_NAME":"LANDSAT 8","OBJECT_ID":"2013-008A","EPOCH":"2026-04-25T21:42:55.847520","MEAN_MOTION":14.57105341,"ECCENTRICITY":0.00011566,"INCLINATION":98.1852,"RA_OF_ASC_NODE":186.8363,"ARG_OF_PERICENTER":95.2329,"MEAN_ANOMALY":264.9002,"EPHEMERIS_TYPE":0,"CLASSIFICATION_TYPE":"U","NORAD_CAT_ID":39084,"ELEMENT_SET_NO":999,"REV_AT_EPOCH":69028,"BSTAR":8.2571166e-5,"MEAN_MOTION_DOT":3.27e-6,"MEAN_MOTION_DDOT":0},{"OBJECT_NAME":"SARAL","OBJECT_ID":"2013-009A","EPOCH":"2026-04-25T22:43:39.589536","MEAN_MOTION":14.32842751,"ECCENTRICITY":0.00029918,"INCLINATION":98.5566,"RA_OF_ASC_NODE":303.1739,"ARG_OF_PERICENTER":84.0878,"MEAN_ANOMALY":276.0647,"EPHEMERIS_TYPE":0,"CLASSIFICATION_TYPE":"U","NORAD_CAT_ID":39086,"ELEMENT_SET_NO":999,"REV_AT_EPOCH":68812,"BSTAR":5.6627749e-5,"MEAN_MOTION_DOT":1.11e-6,"MEAN_MOTION_DDOT":0},{"OBJECT_NAME":"GAOFEN-1","OBJECT_ID":"2013-018A","EPOCH":"2026-04-25T22:47:49.967232","MEAN_MOTION":14.76514,"ECCENTRICITY":0.00184821,"INCLINATION":97.911,"RA_OF_ASC_NODE":189.0733,"ARG_OF_PERICENTER":75.648,"MEAN_ANOMALY":284.6781,"EPHEMERIS_TYPE":0,"CLASSIFICATION_TYPE":"U","NORAD_CAT_ID":39150,"ELEMENT_SET_NO":999,"REV_AT_EPOCH":70053,"BSTAR":5.7549018e-5,"MEAN_MOTION_DOT":3.51e-6,"MEAN_MOTION_DDOT":0},{"OBJECT_NAME":"VNREDSAT 1","OBJECT_ID":"2013-021B","EPOCH":"2026-04-25T21:39:23.433120","MEAN_MOTION":14.64949715,"ECCENTRICITY":0.00012701,"INCLINATION":97.9123,"RA_OF_ASC_NODE":171.3144,"ARG_OF_PERICENTER":87.9797,"MEAN_ANOMALY":272.1552,"EPHEMERIS_TYPE":0,"CLASSIFICATION_TYPE":"U","NORAD_CAT_ID":39160,"ELEMENT_SET_NO":999,"REV_AT_EPOCH":69263,"BSTAR":5.3954759e-5,"MEAN_MOTION_DOT":2.43e-6,"MEAN_MOTION_DDOT":0},{"OBJECT_NAME":"ARIRANG-5 (KOMPSAT-5)","OBJECT_ID":"2013-042A","EPOCH":"2026-04-25T21:22:27.016608","MEAN_MOTION":15.04499125,"ECCENTRICITY":0.00026983,"INCLINATION":97.6214,"RA_OF_ASC_NODE":303.3234,"ARG_OF_PERICENTER":348.2693,"MEAN_ANOMALY":11.847,"EPHEMERIS_TYPE":0,"CLASSIFICATION_TYPE":"U","NORAD_CAT_ID":39227,"ELEMENT_SET_NO":999,"REV_AT_EPOCH":69599,"BSTAR":5.8390602e-5,"MEAN_MOTION_DOT":7.57e-6,"MEAN_MOTION_DDOT":0},{"OBJECT_NAME":"SKYSAT-A","OBJECT_ID":"2013-066C","EPOCH":"2026-04-25T14:33:59.362848","MEAN_MOTION":15.12661764,"ECCENTRICITY":0.00229043,"INCLINATION":97.3867,"RA_OF_ASC_NODE":166.6784,"ARG_OF_PERICENTER":133.596,"MEAN_ANOMALY":226.7178,"EPHEMERIS_TYPE":0,"CLASSIFICATION_TYPE":"U","NORAD_CAT_ID":39418,"ELEMENT_SET_NO":999,"REV_AT_EPOCH":68053,"BSTAR":0.00018100551,"MEAN_MOTION_DOT":3.121e-5,"MEAN_MOTION_DDOT":0},{"OBJECT_NAME":"DUBAISAT-2","OBJECT_ID":"2013-066D","EPOCH":"2026-04-25T23:37:14.669184","MEAN_MOTION":15.09791671,"ECCENTRICITY":0.00103221,"INCLINATION":97.4562,"RA_OF_ASC_NODE":107.5167,"ARG_OF_PERICENTER":205.3516,"MEAN_ANOMALY":154.7208,"EPHEMERIS_TYPE":0,"CLASSIFICATION_TYPE":"U","NORAD_CAT_ID":39419,"ELEMENT_SET_NO":999,"REV_AT_EPOCH":67851,"BSTAR":0.00033104941,"MEAN_MOTION_DOT":5.292e-5,"MEAN_MOTION_DDOT":0},{"OBJECT_NAME":"GPM-CORE","OBJECT_ID":"2014-009C","EPOCH":"2026-04-25T23:18:49.590720","MEAN_MOTION":15.44651689,"ECCENTRICITY":0.00122255,"INCLINATION":64.9709,"RA_OF_ASC_NODE":123.1058,"ARG_OF_PERICENTER":260.3961,"MEAN_ANOMALY":99.5798,"EPHEMERIS_TYPE":0,"CLASSIFICATION_TYPE":"U","NORAD_CAT_ID":39574,"ELEMENT_SET_NO":999,"REV_AT_EPOCH":68974,"BSTAR":0.00016923338,"MEAN_MOTION_DOT":7.699e-5,"MEAN_MOTION_DDOT":0},{"OBJECT_NAME":"SENTINEL-1A","OBJECT_ID":"2014-016A","EPOCH":"2026-04-25T23:29:41.381952","MEAN_MOTION":14.59199183,"ECCENTRICITY":0.00013955,"INCLINATION":98.1805,"RA_OF_ASC_NODE":124.271,"ARG_OF_PERICENTER":84.2208,"MEAN_ANOMALY":275.9151,"EPHEMERIS_TYPE":0,"CLASSIFICATION_TYPE":"U","NORAD_CAT_ID":39634,"ELEMENT_SET_NO":999,"REV_AT_EPOCH":64240,"BSTAR":7.096758e-6,"MEAN_MOTION_DOT":-1.2e-7,"MEAN_MOTION_DDOT":0},{"OBJECT_NAME":"KAZEOSAT 1","OBJECT_ID":"2014-024A","EPOCH":"2026-04-25T21:55:21.501984","MEAN_MOTION":14.42057322,"ECCENTRICITY":0.00014183,"INCLINATION":98.3216,"RA_OF_ASC_NODE":189.6559,"ARG_OF_PERICENTER":99.0304,"MEAN_ANOMALY":261.1047,"EPHEMERIS_TYPE":0,"CLASSIFICATION_TYPE":"U","NORAD_CAT_ID":39731,"ELEMENT_SET_NO":999,"REV_AT_EPOCH":63102,"BSTAR":-4.773018e-6,"MEAN_MOTION_DOT":-5.8e-7,"MEAN_MOTION_DDOT":0},{"OBJECT_NAME":"ALOS-2","OBJECT_ID":"2014-029A","EPOCH":"2026-04-25T04:23:01.850784","MEAN_MOTION":14.79472741,"ECCENTRICITY":0.00018283,"INCLINATION":97.9197,"RA_OF_ASC_NODE":213.1044,"ARG_OF_PERICENTER":85.938,"MEAN_ANOMALY":274.2041,"EPHEMERIS_TYPE":0,"CLASSIFICATION_TYPE":"U","NORAD_CAT_ID":39766,"ELEMENT_SET_NO":999,"REV_AT_EPOCH":64374,"BSTAR":5.6478626e-5,"MEAN_MOTION_DOT":3.7e-6,"MEAN_MOTION_DDOT":0},{"OBJECT_NAME":"KAZEOSAT 2","OBJECT_ID":"2014-033A","EPOCH":"2026-04-25T21:21:30.935232","MEAN_MOTION":14.8540409,"ECCENTRICITY":0.00097173,"INCLINATION":97.5457,"RA_OF_ASC_NODE":318.2555,"ARG_OF_PERICENTER":125.4263,"MEAN_ANOMALY":234.7862,"EPHEMERIS_TYPE":0,"CLASSIFICATION_TYPE":"U","NORAD_CAT_ID":40010,"ELEMENT_SET_NO":999,"REV_AT_EPOCH":64119,"BSTAR":1.852514e-6,"MEAN_MOTION_DOT":-3.4e-7,"MEAN_MOTION_DDOT":0},{"OBJECT_NAME":"HODOYOSHI-4","OBJECT_ID":"2014-033B","EPOCH":"2026-04-25T22:05:57.559776","MEAN_MOTION":14.87995593,"ECCENTRICITY":0.0024941,"INCLINATION":97.5464,"RA_OF_ASC_NODE":303.2701,"ARG_OF_PERICENTER":117.2267,"MEAN_ANOMALY":243.1496,"EPHEMERIS_TYPE":0,"CLASSIFICATION_TYPE":"U","NORAD_CAT_ID":40011,"ELEMENT_SET_NO":999,"REV_AT_EPOCH":64103,"BSTAR":0.00012890543,"MEAN_MOTION_DOT":1.137e-5,"MEAN_MOTION_DDOT":0},{"OBJECT_NAME":"DEIMOS-2","OBJECT_ID":"2014-033D","EPOCH":"2026-04-25T22:18:38.067264","MEAN_MOTION":14.9357309,"ECCENTRICITY":0.00020773,"INCLINATION":97.5896,"RA_OF_ASC_NODE":352.2389,"ARG_OF_PERICENTER":103.5096,"MEAN_ANOMALY":256.6356,"EPHEMERIS_TYPE":0,"CLASSIFICATION_TYPE":"U","NORAD_CAT_ID":40013,"ELEMENT_SET_NO":999,"REV_AT_EPOCH":62992,"BSTAR":0.00015440615,"MEAN_MOTION_DOT":1.574e-5,"MEAN_MOTION_DDOT":0},{"OBJECT_NAME":"HODOYOSHI-3","OBJECT_ID":"2014-033F","EPOCH":"2026-04-25T21:48:21.567744","MEAN_MOTION":14.85268356,"ECCENTRICITY":0.00333731,"INCLINATION":97.6373,"RA_OF_ASC_NODE":281.0719,"ARG_OF_PERICENTER":164.3812,"MEAN_ANOMALY":195.8441,"EPHEMERIS_TYPE":0,"CLASSIFICATION_TYPE":"U","NORAD_CAT_ID":40015,"ELEMENT_SET_NO":999,"REV_AT_EPOCH":63986,"BSTAR":0.00014988604,"MEAN_MOTION_DOT":1.247e-5,"MEAN_MOTION_DDOT":0},{"OBJECT_NAME":"SPOT 7","OBJECT_ID":"2014-034A","EPOCH":"2026-04-25T22:09:58.300416","MEAN_MOTION":14.60909989,"ECCENTRICITY":0.00015641,"INCLINATION":98.066,"RA_OF_ASC_NODE":179.7543,"ARG_OF_PERICENTER":79.5846,"MEAN_ANOMALY":280.5531,"EPHEMERIS_TYPE":0,"CLASSIFICATION_TYPE":"U","NORAD_CAT_ID":40053,"ELEMENT_SET_NO":999,"REV_AT_EPOCH":62950,"BSTAR":5.0979636e-5,"MEAN_MOTION_DOT":2.04e-6,"MEAN_MOTION_DDOT":0},{"OBJECT_NAME":"SKYSAT-B","OBJECT_ID":"2014-037D","EPOCH":"2026-04-25T20:58:52.869792","MEAN_MOTION":14.87885069,"ECCENTRICITY":0.00070294,"INCLINATION":98.3799,"RA_OF_ASC_NODE":71.8768,"ARG_OF_PERICENTER":88.0192,"MEAN_ANOMALY":272.1827,"EPHEMERIS_TYPE":0,"CLASSIFICATION_TYPE":"U","NORAD_CAT_ID":40072,"ELEMENT_SET_NO":999,"REV_AT_EPOCH":63818,"BSTAR":0.00016425677,"MEAN_MOTION_DOT":1.442e-5,"MEAN_MOTION_DDOT":0}]
